{
  "type": "FeatureCollection",
  "features": [
    {
      "type": "Feature",
      "properties": {
        "norad_id": 33805,
        "name": "COSMOS 2251 DEB",
        "group": "cosmos-2251-debris",
        "lat": -8.374170544554728,
        "lon": 144.3599087479194,
        "alt_km": 669.1426742195017,
        "timestamp": "2025-12-07T03:52:32.895028+00:00",
        "meta_object_name": "COSMOS 2251 DEB",
        "meta_object_id": "1993-036AW",
        "meta_epoch": "2025-12-06T08:54:01.135872",
        "meta_mean_motion": 14.57833934,
        "meta_eccentricity": 0.00604653,
        "meta_inclination": 74.0305,
        "meta_ra_of_asc_node": 323.4474,
        "meta_arg_of_pericenter": 154.2159,
        "meta_mean_anomaly": 206.2042,
        "meta_ephemeris_type": 0,
        "meta_classification_type": "U",
        "meta_norad_cat_id": 33805,
        "meta_element_set_no": 999,
        "meta_rev_at_epoch": 89134,
        "meta_bstar": 0.00047404392,
        "meta_mean_motion_dot": 2.195e-05,
        "meta_mean_motion_ddot": 0,
        "tle_line1": "1 33805U 93036AW  25340.37084648  .00002195  00000+0  47404-3 0  9992",
        "tle_line2": "2 33805  74.0305 323.4474 0060465 154.2159 206.2042 14.57833934891343"
      },
      "geometry": {
        "type": "Point",
        "coordinates": [
          144.3599087479194,
          -8.374170544554728
        ]
      }
    },
    {
      "type": "Feature",
      "properties": {
        "norad_id": 33811,
        "name": "COSMOS 2251 DEB",
        "group": "cosmos-2251-debris",
        "lat": -7.521255797059921,
        "lon": 136.41840586417408,
        "alt_km": 573.956175020654,
        "timestamp": "2025-12-07T03:52:32.895039+00:00",
        "meta_object_name": "COSMOS 2251 DEB",
        "meta_object_id": "1993-036BC",
        "meta_epoch": "2025-12-06T10:11:47.410656",
        "meta_mean_motion": 15.04963624,
        "meta_eccentricity": 0.00309085,
        "meta_inclination": 73.8375,
        "meta_ra_of_asc_node": 315.7503,
        "meta_arg_of_pericenter": 37.5429,
        "meta_mean_anomaly": 120.622,
        "meta_ephemeris_type": 0,
        "meta_classification_type": "U",
        "meta_norad_cat_id": 33811,
        "meta_element_set_no": 999,
        "meta_rev_at_epoch": 89923,
        "meta_bstar": 0.0021168875,
        "meta_mean_motion_dot": 0.00030426,
        "meta_mean_motion_ddot": 0,
        "tle_line1": "1 33811U 93036BC  25340.42485429  .00030426  00000+0  21169-2 0  9994",
        "tle_line2": "2 33811  73.8375 315.7503 0030908  37.5429 120.6220 15.04963624899239"
      },
      "geometry": {
        "type": "Point",
        "coordinates": [
          136.41840586417408,
          -7.521255797059921
        ]
      }
    },
    {
      "type": "Feature",
      "properties": {
        "norad_id": 33815,
        "name": "COSMOS 2251 DEB",
        "group": "cosmos-2251-debris",
        "lat": 16.551758719906296,
        "lon": -166.81113741682483,
        "alt_km": 519.7094324555228,
        "timestamp": "2025-12-07T03:52:32.895050+00:00",
        "meta_object_name": "COSMOS 2251 DEB",
        "meta_object_id": "1993-036BG",
        "meta_epoch": "2025-12-06T15:22:36.785856",
        "meta_mean_motion": 15.15992424,
        "meta_eccentricity": 0.0003766,
        "meta_inclination": 73.9542,
        "meta_ra_of_asc_node": 189.372,
        "meta_arg_of_pericenter": 237.4194,
        "meta_mean_anomaly": 178.7071,
        "meta_ephemeris_type": 0,
        "meta_classification_type": "U",
        "meta_norad_cat_id": 33815,
        "meta_element_set_no": 999,
        "meta_rev_at_epoch": 88278,
        "meta_bstar": 0.0096922466,
        "meta_mean_motion_dot": 0.00191187,
        "meta_mean_motion_ddot": 0,
        "tle_line1": "1 33815U 93036BG  25340.64070354  .00191187  00000+0  96922-2 0  9990",
        "tle_line2": "2 33815  73.9542 189.3720 0003766 237.4194 178.7071 15.15992424882780"
      },
      "geometry": {
        "type": "Point",
        "coordinates": [
          -166.81113741682483,
          16.551758719906296
        ]
      }
    },
    {
      "type": "Feature",
      "properties": {
        "norad_id": 33816,
        "name": "COSMOS 2251 DEB",
        "group": "cosmos-2251-debris",
        "lat": 64.08941372228837,
        "lon": 151.34383351491445,
        "alt_km": 848.2312312984623,
        "timestamp": "2025-12-07T03:52:32.895060+00:00",
        "meta_object_name": "COSMOS 2251 DEB",
        "meta_object_id": "1993-036BH",
        "meta_epoch": "2025-12-06T15:22:37.388928",
        "meta_mean_motion": 13.81770216,
        "meta_eccentricity": 0.02650633,
        "meta_inclination": 73.8941,
        "meta_ra_of_asc_node": 115.7324,
        "meta_arg_of_pericenter": 129.8508,
        "meta_mean_anomaly": 232.6263,
        "meta_ephemeris_type": 0,
        "meta_classification_type": "U",
        "meta_norad_cat_id": 33816,
        "meta_element_set_no": 999,
        "meta_rev_at_epoch": 84589,
        "meta_bstar": 0.00097186185,
        "meta_mean_motion_dot": 1.337e-05,
        "meta_mean_motion_ddot": 0,
        "tle_line1": "1 33816U 93036BH  25340.64071052  .00001337  00000+0  97186-3 0  9998",
        "tle_line2": "2 33816  73.8941 115.7324 0265063 129.8508 232.6263 13.81770216845897"
      },
      "geometry": {
        "type": "Point",
        "coordinates": [
          151.34383351491445,
          64.08941372228837
        ]
      }
    },
    {
      "type": "Feature",
      "properties": {
        "norad_id": 33818,
        "name": "COSMOS 2251 DEB",
        "group": "cosmos-2251-debris",
        "lat": 2.6213566213767323,
        "lon": 178.51489276754864,
        "alt_km": 551.8543923752059,
        "timestamp": "2025-12-07T03:52:32.895071+00:00",
        "meta_object_name": "COSMOS 2251 DEB",
        "meta_object_id": "1993-036BK",
        "meta_epoch": "2025-12-06T15:26:16.372320",
        "meta_mean_motion": 15.118124,
        "meta_eccentricity": 0.00284394,
        "meta_inclination": 74.0751,
        "meta_ra_of_asc_node": 178.8356,
        "meta_arg_of_pericenter": 169.6762,
        "meta_mean_anomaly": 253.8379,
        "meta_ephemeris_type": 0,
        "meta_classification_type": "U",
        "meta_norad_cat_id": 33818,
        "meta_element_set_no": 999,
        "meta_rev_at_epoch": 89770,
        "meta_bstar": 0.0035379651,
        "meta_mean_motion_dot": 0.00061513,
        "meta_mean_motion_ddot": 0,
        "tle_line1": "1 33818U 93036BK  25340.64324505  .00061513  00000+0  35380-2 0  9993",
        "tle_line2": "2 33818  74.0751 178.8356 0028439 169.6762 253.8379 15.11812400897701"
      },
      "geometry": {
        "type": "Point",
        "coordinates": [
          178.51489276754864,
          2.6213566213767323
        ]
      }
    },
    {
      "type": "Feature",
      "properties": {
        "norad_id": 33819,
        "name": "COSMOS 2251 DEB",
        "group": "cosmos-2251-debris",
        "lat": -64.23628320564238,
        "lon": -176.04305758859846,
        "alt_km": 847.507468717401,
        "timestamp": "2025-12-07T03:52:32.895082+00:00",
        "meta_object_name": "COSMOS 2251 DEB",
        "meta_object_id": "1993-036BL",
        "meta_epoch": "2025-12-06T14:53:50.330688",
        "meta_mean_motion": 14.32191522,
        "meta_eccentricity": 0.00888493,
        "meta_inclination": 74.1794,
        "meta_ra_of_asc_node": 220.9134,
        "meta_arg_of_pericenter": 84.0864,
        "meta_mean_anomaly": 300.0005,
        "meta_ephemeris_type": 0,
        "meta_classification_type": "U",
        "meta_norad_cat_id": 33819,
        "meta_element_set_no": 999,
        "meta_rev_at_epoch": 87408,
        "meta_bstar": 0.0012445504,
        "meta_mean_motion_dot": 3.479e-05,
        "meta_mean_motion_ddot": 0,
        "tle_line1": "1 33819U 93036BL  25340.62072142  .00003479  00000+0  12446-2 0  9994",
        "tle_line2": "2 33819  74.1794 220.9134 0088849  84.0864 300.0005 14.32191522874081"
      },
      "geometry": {
        "type": "Point",
        "coordinates": [
          -176.04305758859846,
          -64.23628320564238
        ]
      }
    },
    {
      "type": "Feature",
      "properties": {
        "norad_id": 33821,
        "name": "COSMOS 2251 DEB",
        "group": "cosmos-2251-debris",
        "lat": -73.6588902063394,
        "lon": 52.27030226059972,
        "alt_km": 489.8869894840982,
        "timestamp": "2025-12-07T03:52:32.895092+00:00",
        "meta_object_name": "COSMOS 2251 DEB",
        "meta_object_id": "1993-036BN",
        "meta_epoch": "2025-12-06T14:06:54.617760",
        "meta_mean_motion": 15.24762416,
        "meta_eccentricity": 0.00535282,
        "meta_inclination": 74.0284,
        "meta_ra_of_asc_node": 155.8357,
        "meta_arg_of_pericenter": 190.82,
        "meta_mean_anomaly": 169.1854,
        "meta_ephemeris_type": 0,
        "meta_classification_type": "U",
        "meta_norad_cat_id": 33821,
        "meta_element_set_no": 999,
        "meta_rev_at_epoch": 74907,
        "meta_bstar": 0.0017863358,
        "meta_mean_motion_dot": 0.0004636,
        "meta_mean_motion_ddot": 0,
        "tle_line1": "1 33821U 93036BN  25340.58813215  .00046360  00000+0  17863-2 0  9990",
        "tle_line2": "2 33821  74.0284 155.8357 0053528 190.8200 169.1854 15.24762416749070"
      },
      "geometry": {
        "type": "Point",
        "coordinates": [
          52.27030226059972,
          -73.6588902063394
        ]
      }
    }
  ]
}